[{"OBJECT_NAME":"STARLINK-6225","OBJECT_ID":"2023-088AW","EPOCH":"2026-03-09T22:00:01.999584","MEAN_MOTION":15.09115885,"ECCENTRICITY":0.00012797,"INCLINATION":43.0006,"RA_OF_ASC_NODE":92.9772,"ARG_OF_PERICENTER":300.4032,"MEAN_ANOMALY":173.2398,"EPHEMERIS_TYPE":0,"CLASSIFICATION_TYPE":"U","NORAD_CAT_ID":57092,"ELEMENT_SET_NO":999,"REV_AT_EPOCH":578,"BSTAR":0.0035676543,"MEAN_MOTION_DOT":0.0005781,"MEAN_MOTION_DDOT":0},{"OBJECT_NAME":"YUNYAO-1 43","OBJECT_ID":"2025-059A","EPOCH":"2026-03-09T23:54:24.516576","MEAN_MOTION":15.10329109,"ECCENTRICITY":0.00157026,"INCLINATION":97.608,"RA_OF_ASC_NODE":250.9377,"ARG_OF_PERICENTER":132.1084,"MEAN_ANOMALY":228.1483,"EPHEMERIS_TYPE":0,"CLASSIFICATION_TYPE":"U","NORAD_CAT_ID":63344,"ELEMENT_SET_NO":999,"REV_AT_EPOCH":5332,"BSTAR":0.00032498885,"MEAN_MOTION_DOT":5.279e-5,"MEAN_MOTION_DDOT":0}]
